ATS 1                   
1 02608U 66110A   08106.23164343  .00000108  00000-0  10000-3 0  8375
2 02608   8.6787 312.9007 0004898 195.9758 163.8807  1.00357263 68216
ATS 3                   
1 03029U 67111A   08105.61884500 -.00000128  00000-0  10000-3 0  3356
2 03029  10.0937 320.5630 0014666  30.4700 329.5143  1.00272226148082
ORIZURU (DEBUT)         
1 20479U 90013B   08107.11540184 -.00000014  00000-0  33856-4 0  9170
2 20479  99.0235 103.5076 0540139  53.2151 311.7286 12.83673535852234
SURFSAT                 
1 23711U 95059B   08107.87615558  .00000040  00000-0  16425-3 0  9358
2 23711 100.2997 117.2648 0368554  11.4344 349.4807 13.12558955596505
MAQSAT H                
1 25023U 97066A   08106.89383112  .00000142  00000-0  11885-2 0  4908
2 25023   7.8119  89.7179 6494072  47.7647 351.5751  3.09437847118112
MAQSAT B                
1 25024U 97066B   08106.54929847 -.00000036  00000-0 -15203-3 0  5243
2 25024   7.8212  86.1694 6506671  54.2758 350.1918  3.08759315118032
TEAMSAT                 
1 25025U 97066C   08106.44253730 -.00000056  00000-0 -54838-3 0  5344
2 25025   7.7595  99.0368 6508385  28.7043 355.2766  3.07906726117691
OPAL (OO-38)            
1 26063U 00004C   08107.76069434 -.00000032  00000-0  91525-5 0  1878
2 26063 100.1955 171.2649 0036974  23.2104 337.0736 14.35832286430751
FALCONSAT               
1 26064U 00004D   08107.80880752 -.00000122  00000-0 -21759-4 0  1858
2 26064 100.1970 169.6535 0038278  28.9471 331.3807 14.35389232430644
PICOSAT 1 & 2 [TETHERED]
1 26080U 00004H   08107.77647414  .00000007  00000-0  21048-4 0  7899
2 26080 100.1864 190.7667 0031680 340.7243  19.2724 14.40213153430102
PICOSAT 3               
1 26091U 00004J   08107.78676620  .00000188  00000-0  73331-4 0  2924
2 26091 100.1815 199.5623 0030897 309.1746  50.6691 14.43204469429917
PICOSAT 4               
1 26092U 00004K   08108.13314902  .00000074  00000-0  42115-4 0  1421
2 26092 100.1767 186.0558 0034415 336.3496  23.6095 14.40168348429376
PICOSAT 5               
1 26093U 00004L   08107.74536990  .00000172  00000-0  66963-4 0   279
2 26093 100.1777 205.1450 0032063 293.8882  65.8919 14.44678478430475
PICOSAT 6               
1 26094U 00004M   08107.18297328  .00000113  00000-0  54865-4 0  5499
2 26094 100.1840 183.5805 0035243 347.7197  12.3175 14.39493998428778
SNAP 1                  
1 26386U 00033C   08108.09343025  .00000074  00000-0  23214-4 0  4086
2 26386  98.4164 124.8697 0012855  84.6265 275.6401 14.65047225416774
CHAMP                   
1 26405U 00039B   08107.72934807  .00007306  00000-0  39077-4 0  5122
2 26405  87.2258 126.2449 0003417  85.3940 274.7725 15.80056729442190
PICOSAT 9               
1 26930U 01043B   08107.36700023 -.00000024  00000-0  22759-4 0  8462
2 26930  67.0006  65.2976 0001954 290.1404  69.9488 14.30020395341712
PROBA 1                 
1 26958U 01049B   08108.03454988  .00000300  00000-0  35497-4 0  4172
2 26958  97.6731 178.5075 0081625 341.9898  17.8426 14.89565972352387
CUTE-1 (CO-55)          
1 27844U 03031E   08107.59608466  .00000050  00000-0  43780-4 0  2839
2 27844  98.7177 116.7164 0009189 297.6046  62.4197 14.20572339248697
CANX-1                  
1 27847U 03031H   08107.60778641  .00000033  00000-0  35732-4 0  2218
2 27847  98.7126 117.7078 0008702 276.5297  83.4900 14.20914261248715
CUBESAT XI-IV (CO-57)   
1 27848U 03031J   08107.02235155  .00000029  00000-0  34022-4 0  2343
2 27848  98.7175 115.2583 0009246 303.3189  56.7100 14.20382532248587
NAXING 1                
1 28221U 04012B   08107.33724991  .00000206  00000-0  28180-4 0  8233
2 28221  97.5452 158.6712 0011827 169.0118 191.1349 14.87799155216849
ST5-A                   
1 28980U 06008A   08107.01859542  .00006053  00000-0  34855-3 0  6529
2 28980 105.6709 101.9988 2368382 355.3506   2.8591 10.58974438 79710
ST5-B                   
1 28981U 06008B   08108.03201098  .00011811  15980-5  40181-3 0  6851
2 28981 105.6820 113.1776 2361314 346.0058   8.5082 10.68294736 80180
ST5-C                   
1 28982U 06008C   08108.04353016  .00010233  15633-5  40628-3 0  6916
2 28982 105.6974 110.7962 2366456 349.0860   6.6326 10.65248621 80063
GENESIS 1               
1 29252U 06029A   08107.04026023 -.00000191  00000-0 -37269-8 0  4847
2 29252  64.5105 281.0796 0057746 274.0196  85.4320 15.03181316 96707
FALCONSAT-3             
1 30776U 07006E   08107.53019599  .00000367  00000-0  29863-4 0  2916
2 30776  35.4335 167.4194 0001021 256.1234 103.9368 15.02952451 60861
GENESIS 2               
1 31789U 07028A   08107.16356711  .00000128  00000-0  22790-4 0  2269
2 31789  64.5110 311.1004 0034835 325.7226  34.1640 15.02842192 43950
